{
  "type": "FeatureCollection",
  "generator": "overpass-turbo",
  "copyright": "The data included in this document is from www.openstreetmap.org. The data is made available under ODbL.",
  "timestamp": "2026-01-31T22:19:22Z",
  "features": [
    {
      "type": "Feature",
      "properties": {
        "@id": "relation/1875933",
        "building": "university",
        "building:levels": "2",
        "ref": "B",
        "name": "B-Gebäude",
        "type": "multipolygon"
      },
      "geometry": {
        "type": "Polygon",
        "coordinates": [
          [
            [
              8.4251685,
              49.9843592
            ],
            [
              8.4258177,
              49.9844615
            ],
            [
              8.4260289,
              49.9844948
            ],
            [
              8.4260165,
              49.9845273
            ],
            [
              8.4258174,
              49.9850498
            ],
            [
              8.4256081,
              49.9850168
            ],
            [
              8.4254106,
              49.9849857
            ],
            [
              8.424957,
              49.9849142
            ],
            [
              8.4249824,
              49.9848475
            ],
            [
              8.4249873,
              49.9848346
            ],
            [
              8.4249925,
              49.984821
            ],
            [
              8.4251336,
              49.9844507
            ],
            [
              8.4251389,
              49.9844369
            ],
            [
              8.4251442,
              49.984423
            ],
            [
              8.4251685,
              49.9843592
            ]
          ],
          [
            [
              8.4253556,
              49.9845538
            ],
            [
              8.4252625,
              49.9847982
            ],
            [
              8.4256397,
              49.9848576
            ],
            [
              8.4257328,
              49.9846132
            ],
            [
              8.4253556,
              49.9845538
            ]
          ]
        ]
      },
      "id": "relation/1875933"
    },
    {
      "type": "Feature",
      "properties": {
        "@id": "way/24523108",
        "building": "university",
        "name": "A-Gebäude"
      },
      "geometry": {
        "type": "Polygon",
        "coordinates": [
          [
            [
              8.4231987,
              49.9858128
            ],
            [
              8.4232914,
              49.9855684
            ],
            [
              8.423304,
              49.9855352
            ],
            [
              8.4233118,
              49.9855144
            ],
            [
              8.42362,
              49.9847015
            ],
            [
              8.4237214,
              49.9847174
            ],
            [
              8.4237528,
              49.9846346
            ],
            [
              8.4237733,
              49.9846378
            ],
            [
              8.4237959,
              49.9846413
            ],
            [
              8.4237645,
              49.9847242
            ],
            [
              8.4239554,
              49.9847541
            ],
            [
              8.4239907,
              49.9846608
            ],
            [
              8.4240137,
              49.9846644
            ],
            [
              8.4240382,
              49.9846682
            ],
            [
              8.4240028,
              49.9847615
            ],
            [
              8.4240991,
              49.9847766
            ],
            [
              8.4240052,
              49.9850243
            ],
            [
              8.4242937,
              49.9850695
            ],
            [
              8.4243299,
              49.9849739
            ],
            [
              8.4246195,
              49.9850193
            ],
            [
              8.4245839,
              49.985115
            ],
            [
              8.4246291,
              49.9851221
            ],
            [
              8.4248735,
              49.9851603
            ],
            [
              8.4248645,
              49.9851843
            ],
            [
              8.4248261,
              49.985286
            ],
            [
              8.4246034,
              49.9852512
            ],
            [
              8.4245817,
              49.9852478
            ],
            [
              8.4245591,
              49.9852443
            ],
            [
              8.4245365,
              49.9852408
            ],
            [
              8.4239608,
              49.9851505
            ],
            [
              8.4239079,
              49.98529
            ],
            [
              8.423845,
              49.9854558
            ],
            [
              8.4244198,
              49.9855459
            ],
            [
              8.4244435,
              49.9855496
            ],
            [
              8.4244647,
              49.9855529
            ],
            [
              8.4244869,
              49.9855564
            ],
            [
              8.4247082,
              49.9855911
            ],
            [
              8.4246604,
              49.9857172
            ],
            [
              8.4244168,
              49.985679
            ],
            [
              8.4243711,
              49.9856719
            ],
            [
              8.4237896,
              49.9855807
            ],
            [
              8.4237884,
              49.9855838
            ],
            [
              8.4239368,
              49.9856073
            ],
            [
              8.4239138,
              49.9856659
            ],
            [
              8.4238321,
              49.9856525
            ],
            [
              8.4237664,
              49.9856417
            ],
            [
              8.4236733,
              49.9858873
            ],
            [
              8.4235837,
              49.9858732
            ],
            [
              8.4235599,
              49.985936
            ],
            [
              8.4232746,
              49.9858913
            ],
            [
              8.4232985,
              49.9858284
            ],
            [
              8.4231987,
              49.9858128
            ]
          ]
        ]
      },
      "id": "way/24523108"
    },
    {
      "type": "Feature",
      "properties": {
        "@id": "way/155817748",
        "access": "private",
        "amenity": "fast_food",
        "building": "university",
        "diet:vegetarian": "yes",
        "fast_food": "cafeteria",
        "name": "F-Gebäude + Mensa",
        "opening_hours": "Mo-Fr 08:00-15:00; Sa 12:00-14:00; Su,PH off",
        "operator": "Studierendenwerk Frankfurt am Main",
        "ref": "F",
        "website": "https://www.swffm.de/essen-trinken/einrichtungen/hochschule-rheinmain/mensa-ruesselsheim",
        "wheelchair": "yes"
      },
      "geometry": {
        "type": "Polygon",
        "coordinates": [
          [
            [
              8.4250226,
              49.9850202
            ],
            [
              8.4250448,
              49.985019
            ],
            [
              8.425065,
              49.9850179
            ],
            [
              8.4250709,
              49.9850126
            ],
            [
              8.4250828,
              49.9850115
            ],
            [
              8.4250907,
              49.9850159
            ],
            [
              8.4250907,
              49.9850229
            ],
            [
              8.4251137,
              49.9850304
            ],
            [
              8.4251269,
              49.9850385
            ],
            [
              8.4251092,
              49.9850849
            ],
            [
              8.4256856,
              49.9851767
            ],
            [
              8.4254217,
              49.9853302
            ],
            [
              8.4250807,
              49.9855308
            ],
            [
              8.4249479,
              49.9855105
            ],
            [
              8.4249031,
              49.9856278
            ],
            [
              8.4247576,
              49.9857114
            ],
            [
              8.4250226,
              49.9850202
            ]
          ]
        ]
      },
      "id": "way/155817748"
    },
    {
      "type": "Feature",
      "properties": {
        "@id": "way/155817750",
        "building": "university",
        "ref": "E",
        "name": "E-Gebäude",
        "wheelchair": "yes"
      },
      "geometry": {
        "type": "Polygon",
        "coordinates": [
          [
            [
              8.4236927,
              49.9845113
            ],
            [
              8.423751,
              49.9843509
            ],
            [
              8.4238618,
              49.9843668
            ],
            [
              8.423884,
              49.9843699
            ],
            [
              8.4238942,
              49.9843401
            ],
            [
              8.4240793,
              49.9843669
            ],
            [
              8.4240641,
              49.9844103
            ],
            [
              8.4240876,
              49.9844135
            ],
            [
              8.424109,
              49.9844167
            ],
            [
              8.4241244,
              49.9843747
            ],
            [
              8.4243083,
              49.9844034
            ],
            [
              8.4242927,
              49.9844454
            ],
            [
              8.4243344,
              49.9844517
            ],
            [
              8.4243518,
              49.9844081
            ],
            [
              8.4245358,
              49.9844372
            ],
            [
              8.4245205,
              49.9844797
            ],
            [
              8.4245435,
              49.9844831
            ],
            [
              8.424565,
              49.9844867
            ],
            [
              8.4245726,
              49.9844639
            ],
            [
              8.4247469,
              49.9844896
            ],
            [
              8.4246818,
              49.9846631
            ],
            [
              8.4245086,
              49.9846372
            ],
            [
              8.424517,
              49.9846141
            ],
            [
              8.4244961,
              49.984611
            ],
            [
              8.4244731,
              49.9846074
            ],
            [
              8.4244567,
              49.9846517
            ],
            [
              8.4242721,
              49.9846233
            ],
            [
              8.4242879,
              49.9845794
            ],
            [
              8.4242452,
              49.9845716
            ],
            [
              8.4242275,
              49.9846177
            ],
            [
              8.4240447,
              49.984588
            ],
            [
              8.4240617,
              49.9845429
            ],
            [
              8.4240394,
              49.9845398
            ],
            [
              8.4240158,
              49.9845361
            ],
            [
              8.4240009,
              49.9845808
            ],
            [
              8.4238181,
              49.9845525
            ],
            [
              8.4238311,
              49.9845079
            ],
            [
              8.4238125,
              49.9845049
            ],
            [
              8.4237912,
              49.9845015
            ],
            [
              8.4237777,
              49.9845242
            ],
            [
              8.4236927,
              49.9845113
            ]
          ]
        ]
      },
      "id": "way/155817750"
    },
    {
      "type": "Feature",
      "properties": {
        "@id": "way/249113993",
        "addr:city": "Rüsselsheim am Main",
        "addr:country": "DE",
        "addr:housenumber": "60",
        "addr:postcode": "65428",
        "addr:street": "August-Bebel-Straße",
        "building": "university",
        "name": "C-Gebäude",
        "ref": "C"
      },
      "geometry": {
        "type": "Polygon",
        "coordinates": [
          [
            [
              8.4241765,
              49.9842045
            ],
            [
              8.4242234,
              49.9840827
            ],
            [
              8.4243565,
              49.9841039
            ],
            [
              8.4243436,
              49.9841373
            ],
            [
              8.4243223,
              49.9841926
            ],
            [
              8.4243095,
              49.9842257
            ],
            [
              8.4241765,
              49.9842045
            ]
          ]
        ]
      },
      "id": "way/249113993"
    },
    {
      "type": "Feature",
      "properties": {
        "@id": "way/388252665",
        "building": "university",
        "building:levels": "1",
        "name": "D-Gebäude",
        "ref": "D"
      },
      "geometry": {
        "type": "Polygon",
        "coordinates": [
          [
            [
              8.4242752,
              49.9854559
            ],
            [
              8.4243468,
              49.9852702
            ],
            [
              8.4245374,
              49.9853006
            ],
            [
              8.4245604,
              49.9853043
            ],
            [
              8.4245824,
              49.9853078
            ],
            [
              8.4247756,
              49.9853386
            ],
            [
              8.4247041,
              49.9855243
            ],
            [
              8.4245113,
              49.9854935
            ],
            [
              8.4244887,
              49.9854899
            ],
            [
              8.4244677,
              49.9854866
            ],
            [
              8.4242752,
              49.9854559
            ]
          ]
        ]
      },
      "id": "way/388252665"
    },
    {
      "type": "Feature",
      "properties": {
        "@id": "way/397176780",
        "building": "university",
        "building:levels": "3",
        "name": "G-Gebäude",
        "ref": "G"
      },
      "geometry": {
        "type": "Polygon",
        "coordinates": [
          [
            [
              8.4237818,
              49.9859182
            ],
            [
              8.4238225,
              49.9858121
            ],
            [
              8.423854,
              49.9857299
            ],
            [
              8.4241465,
              49.9857763
            ],
            [
              8.4244092,
              49.9858179
            ],
            [
              8.4243764,
              49.9859033
            ],
            [
              8.424337,
              49.9860062
            ],
            [
              8.4237818,
              49.9859182
            ]
          ]
        ]
      },
      "id": "way/397176780"
    }
  ]
}