{
  "type": "FeatureCollection",
  "generator": "overpass-turbo",
  "copyright": "The data included in this document is from www.openstreetmap.org. The data is made available under ODbL.",
  "timestamp": "2026-01-31T21:55:55Z",
  "features": [
    {
      "type": "Feature",
      "properties": {
        "@id": "relation/6972346",
        "addr:city": "Wiesbaden",
        "addr:housenumber": "5c",
        "addr:postcode": "65195",
        "addr:street": "Unter den Eichen",
        "building": "university",
        "designation": "Gebäude C - Angewandte Informatik, Allgemeine Informatik, Master Informatik",
        "name": "C-Gebäude",
        "source": "Student there;www.hs-rm.de;http://www.hs-rm.de/dcsm/studiengaenge/angewandte-informatik-bsc",
        "type": "multipolygon",
        "wheelchair": "yes",
        "wikidata": "Q542415",
        "wikipedia": "de:Hochschule RheinMain"
      },
      "geometry": {
        "type": "MultiPolygon",
        "coordinates": [
          [
            [
              [
                8.2166936,
                50.0969712
              ],
              [
                8.2167792,
                50.096884
              ],
              [
                8.2167668,
                50.096879
              ],
              [
                8.2167875,
                50.0968579
              ],
              [
                8.216773,
                50.0968508
              ],
              [
                8.2168224,
                50.0968224
              ],
              [
                8.2168354,
                50.0968091
              ],
              [
                8.216851,
                50.0968154
              ],
              [
                8.2169982,
                50.0966654
              ],
              [
                8.2171953,
                50.0967454
              ],
              [
                8.216895,
                50.0970515
              ],
              [
                8.2168629,
                50.0970385
              ],
              [
                8.2168257,
                50.0970764
              ],
              [
                8.2166954,
                50.0970235
              ],
              [
                8.2167315,
                50.0969866
              ],
              [
                8.2166936,
                50.0969712
              ]
            ]
          ],
          [
            [
              [
                8.216998,
                50.0965894
              ],
              [
                8.217075,
                50.0964229
              ],
              [
                8.2175702,
                50.096628
              ],
              [
                8.2174499,
                50.0967501
              ],
              [
                8.2173341,
                50.0967029
              ],
              [
                8.2173266,
                50.0967105
              ],
              [
                8.2172999,
                50.0966996
              ],
              [
                8.2172907,
                50.0967089
              ],
              [
                8.2172758,
                50.0967029
              ],
              [
                8.2172228,
                50.0967567
              ],
              [
                8.2171953,
                50.0967454
              ],
              [
                8.2169982,
                50.0966654
              ],
              [
                8.2169651,
                50.0966572
              ],
              [
                8.216998,
                50.0965894
              ]
            ]
          ]
        ]
      },
      "id": "relation/6972346"
    },
    {
      "type": "Feature",
      "properties": {
        "@id": "relation/6972347",
        "addr:housenumber": "5e",
        "addr:street": "Unter den Eichen",
        "building": "college",
        "name": "F-Gebäude",
        "type": "multipolygon"
      },
      "geometry": {
        "type": "MultiPolygon",
        "coordinates": [
          [
            [
              [
                8.2156392,
                50.0980099
              ],
              [
                8.2155061,
                50.097958
              ],
              [
                8.2155941,
                50.0978646
              ],
              [
                8.2157386,
                50.097921
              ],
              [
                8.2156847,
                50.0979782
              ],
              [
                8.2156735,
                50.0979738
              ],
              [
                8.2156553,
                50.0979805
              ],
              [
                8.2156449,
                50.0979893
              ],
              [
                8.2156388,
                50.098001
              ],
              [
                8.2156392,
                50.0980099
              ]
            ]
          ],
          [
            [
              [
                8.2155989,
                50.0980733
              ],
              [
                8.2156536,
                50.0980159
              ],
              [
                8.2156392,
                50.0980099
              ],
              [
                8.2156388,
                50.098001
              ],
              [
                8.2156449,
                50.0979893
              ],
              [
                8.2156553,
                50.0979805
              ],
              [
                8.2156735,
                50.0979738
              ],
              [
                8.2156847,
                50.0979782
              ],
              [
                8.2157386,
                50.097921
              ],
              [
                8.2158356,
                50.0979591
              ],
              [
                8.2158472,
                50.0979469
              ],
              [
                8.2158648,
                50.0979473
              ],
              [
                8.2158783,
                50.0979508
              ],
              [
                8.2158889,
                50.097957
              ],
              [
                8.2158936,
                50.0979652
              ],
              [
                8.2158831,
                50.0979762
              ],
              [
                8.2159803,
                50.0980145
              ],
              [
                8.2159242,
                50.0980735
              ],
              [
                8.2159392,
                50.0980794
              ],
              [
                8.2159382,
                50.0980908
              ],
              [
                8.2159331,
                50.0980983
              ],
              [
                8.2159238,
                50.0981049
              ],
              [
                8.2159101,
                50.09811
              ],
              [
                8.2158982,
                50.0981054
              ],
              [
                8.2158623,
                50.0981432
              ],
              [
                8.2158388,
                50.0981678
              ],
              [
                8.2158008,
                50.0981532
              ],
              [
                8.2157631,
                50.0981382
              ],
              [
                8.2155989,
                50.0980733
              ]
            ]
          ],
          [
            [
              [
                8.2158741,
                50.0983517
              ],
              [
                8.2157521,
                50.0984824
              ],
              [
                8.2153584,
                50.098332
              ],
              [
                8.2155989,
                50.0980733
              ],
              [
                8.2157631,
                50.0981382
              ],
              [
                8.215616,
                50.0982934
              ],
              [
                8.2157743,
                50.0983542
              ],
              [
                8.2157885,
                50.0983389
              ],
              [
                8.215814,
                50.0983472
              ],
              [
                8.2158395,
                50.0983511
              ],
              [
                8.2158517,
                50.0983517
              ],
              [
                8.2158741,
                50.0983517
              ]
            ]
          ]
        ]
      },
      "id": "relation/6972347"
    },
    {
      "type": "Feature",
      "properties": {
        "@id": "way/65045730",
        "addr:housename": "Gebäude F",
        "addr:street": "Unter den Eichen",
        "amenity": "university",
        "building": "yes",
        "check_date": "2025-01-10",
        "designation": "Bibliothek",
        "name": "Bibliothek",
        "ref": "F",
        "source": "Knowledge",
        "wheelchair": "yes"
      },
      "geometry": {
        "type": "Polygon",
        "coordinates": [
          [
            [
              8.2158388,
              50.0981678
            ],
            [
              8.2158623,
              50.0981432
            ],
            [
              8.2158813,
              50.098143
            ],
            [
              8.2159079,
              50.0981452
            ],
            [
              8.2159212,
              50.0981311
            ],
            [
              8.2159956,
              50.0981589
            ],
            [
              8.2159823,
              50.0981733
            ],
            [
              8.2159926,
              50.0981798
            ],
            [
              8.2160017,
              50.0981884
            ],
            [
              8.2160082,
              50.0981977
            ],
            [
              8.2160116,
              50.0982055
            ],
            [
              8.2159898,
              50.0982289
            ],
            [
              8.2160269,
              50.0982436
            ],
            [
              8.2160257,
              50.0982619
            ],
            [
              8.216017,
              50.098285
            ],
            [
              8.2160056,
              50.0983011
            ],
            [
              8.2159848,
              50.0983195
            ],
            [
              8.2159591,
              50.0983345
            ],
            [
              8.2159363,
              50.098342
            ],
            [
              8.2158974,
              50.0983275
            ],
            [
              8.2158741,
              50.0983517
            ],
            [
              8.2158517,
              50.0983517
            ],
            [
              8.2158533,
              50.0983383
            ],
            [
              8.2158334,
              50.0983366
            ],
            [
              8.2158155,
              50.0983332
            ],
            [
              8.2157799,
              50.0983222
            ],
            [
              8.2157522,
              50.0983053
            ],
            [
              8.2157328,
              50.0982784
            ],
            [
              8.2157261,
              50.0982554
            ],
            [
              8.2157284,
              50.0982301
            ],
            [
              8.2157404,
              50.0982065
            ],
            [
              8.2157598,
              50.0981887
            ],
            [
              8.2157881,
              50.0981741
            ],
            [
              8.2157777,
              50.0981591
            ],
            [
              8.2158008,
              50.0981532
            ],
            [
              8.2158388,
              50.0981678
            ]
          ]
        ]
      },
      "id": "way/65045730"
    },
    {
      "type": "Feature",
      "properties": {
        "@id": "way/65045771",
        "addr:housename": "Gebäude D",
        "addr:housenumber": "5d",
        "addr:street": "Unter den Eichen",
        "amenity": "university",
        "building": "yes",
        "check_date": "2024-10-26",
        "name": "D-Gebäude",
        "ref": "D",
        "source": "Gebäude D - Medieninformatik"
      },
      "geometry": {
        "type": "Polygon",
        "coordinates": [
          [
            [
              8.215872,
              50.0977286
            ],
            [
              8.2161649,
              50.0974199
            ],
            [
              8.216141,
              50.0974105
            ],
            [
              8.2162084,
              50.0973395
            ],
            [
              8.2162774,
              50.0973666
            ],
            [
              8.2162667,
              50.0973777
            ],
            [
              8.216483,
              50.0974626
            ],
            [
              8.2164985,
              50.0974463
            ],
            [
              8.2165699,
              50.0974743
            ],
            [
              8.2161482,
              50.0979188
            ],
            [
              8.2158371,
              50.0977967
            ],
            [
              8.2158936,
              50.0977371
            ],
            [
              8.215872,
              50.0977286
            ]
          ]
        ]
      },
      "id": "way/65045771"
    },
    {
      "type": "Feature",
      "properties": {
        "@id": "way/71859476",
        "addr:housenumber": "5k",
        "addr:street": "Unter den Eichen",
        "name": "Restaurant Camera",
        "building": "retail"
      },
      "geometry": {
        "type": "Polygon",
        "coordinates": [
          [
            [
              8.2168225,
              50.09772
            ],
            [
              8.216853,
              50.0977308
            ],
            [
              8.2168939,
              50.0977837
            ],
            [
              8.2168892,
              50.0978374
            ],
            [
              8.2168438,
              50.0978852
            ],
            [
              8.2167683,
              50.0979117
            ],
            [
              8.2166803,
              50.0979107
            ],
            [
              8.2166736,
              50.0979283
            ],
            [
              8.2166369,
              50.0979155
            ],
            [
              8.2166729,
              50.0978771
            ],
            [
              8.2166493,
              50.0978559
            ],
            [
              8.2166435,
              50.0978226
            ],
            [
              8.2166523,
              50.0977919
            ],
            [
              8.2166769,
              50.0977666
            ],
            [
              8.2167091,
              50.0977492
            ],
            [
              8.216761,
              50.0977384
            ],
            [
              8.2168033,
              50.0977404
            ],
            [
              8.2168225,
              50.09772
            ]
          ]
        ]
      },
      "id": "way/71859476"
    },
    {
      "type": "Feature",
      "properties": {
        "@id": "way/182285605",
        "addr:housenumber": "5f",
        "addr:street": "Unter den Eichen",
        "name": "FIII-Gebäude",
        "building": "college"
      },
      "geometry": {
        "type": "Polygon",
        "coordinates": [
          [
            [
              8.2158741,
              50.0983517
            ],
            [
              8.2158974,
              50.0983275
            ],
            [
              8.2159363,
              50.098342
            ],
            [
              8.2159871,
              50.0983623
            ],
            [
              8.215996,
              50.0983529
            ],
            [
              8.2160102,
              50.0983527
            ],
            [
              8.2160293,
              50.0983563
            ],
            [
              8.2160467,
              50.0983657
            ],
            [
              8.2160526,
              50.0983749
            ],
            [
              8.216046,
              50.098382
            ],
            [
              8.2161351,
              50.0984165
            ],
            [
              8.2160765,
              50.098479
            ],
            [
              8.2160955,
              50.0984864
            ],
            [
              8.2160951,
              50.0984977
            ],
            [
              8.2160898,
              50.0985064
            ],
            [
              8.2160801,
              50.0985133
            ],
            [
              8.2160674,
              50.0985164
            ],
            [
              8.2160502,
              50.0985097
            ],
            [
              8.2159913,
              50.0985725
            ],
            [
              8.2158993,
              50.0985368
            ],
            [
              8.2158903,
              50.0985465
            ],
            [
              8.2158724,
              50.0985459
            ],
            [
              8.2158607,
              50.0985427
            ],
            [
              8.2158505,
              50.0985367
            ],
            [
              8.2158424,
              50.0985279
            ],
            [
              8.2158496,
              50.0985203
            ],
            [
              8.2157521,
              50.0984824
            ],
            [
              8.2158741,
              50.0983517
            ]
          ]
        ]
      },
      "id": "way/182285605"
    },
    {
      "type": "Feature",
      "properties": {
        "@id": "way/182285606",
        "addr:housenumber": "5f",
        "addr:street": "Unter den Eichen",
        "name": "FII-Gebäude",
        "building": "college"
      },
      "geometry": {
        "type": "Polygon",
        "coordinates": [
          [
            [
              8.216111,
              50.0980996
            ],
            [
              8.2161351,
              50.098074
            ],
            [
              8.2162248,
              50.0981088
            ],
            [
              8.2162336,
              50.0980994
            ],
            [
              8.2162478,
              50.0980991
            ],
            [
              8.2162669,
              50.0981028
            ],
            [
              8.2162843,
              50.0981121
            ],
            [
              8.2162903,
              50.0981213
            ],
            [
              8.2162837,
              50.0981284
            ],
            [
              8.2163728,
              50.098163
            ],
            [
              8.2163142,
              50.0982255
            ],
            [
              8.2163332,
              50.0982329
            ],
            [
              8.2163328,
              50.0982442
            ],
            [
              8.2163275,
              50.0982529
            ],
            [
              8.2163177,
              50.0982598
            ],
            [
              8.2163051,
              50.0982628
            ],
            [
              8.2162879,
              50.0982561
            ],
            [
              8.216229,
              50.0983189
            ],
            [
              8.216137,
              50.0982833
            ],
            [
              8.2161279,
              50.0982929
            ],
            [
              8.2161101,
              50.0982923
            ],
            [
              8.2160984,
              50.0982891
            ],
            [
              8.2160881,
              50.0982832
            ],
            [
              8.2160801,
              50.0982744
            ],
            [
              8.2160872,
              50.0982667
            ],
            [
              8.2160269,
              50.0982436
            ],
            [
              8.2159898,
              50.0982289
            ],
            [
              8.2160116,
              50.0982055
            ],
            [
              8.216111,
              50.0980996
            ]
          ]
        ]
      },
      "id": "way/182285606"
    },
    {
      "type": "Feature",
      "properties": {
        "@id": "way/182285616",
        "addr:housename": "Gebäude B2",
        "addr:housenumber": "5",
        "addr:street": "Unter den Eichen",
        "building": "college",
        "building:levels": "3",
        "ref": "B2",
        "name": "B2-Gebäude",
        "roof:levels": "0"
      },
      "geometry": {
        "type": "Polygon",
        "coordinates": [
          [
            [
              8.2155097,
              50.0959635
            ],
            [
              8.2153574,
              50.0958113
            ],
            [
              8.2163781,
              50.0953911
            ],
            [
              8.2165304,
              50.0955434
            ],
            [
              8.2158063,
              50.0958414
            ],
            [
              8.2157441,
              50.095867
            ],
            [
              8.2155097,
              50.0959635
            ]
          ]
        ]
      },
      "id": "way/182285616"
    },
    {
      "type": "Feature",
      "properties": {
        "@id": "way/182285618",
        "addr:housename": "Gebäude B1",
        "addr:housenumber": "5",
        "addr:street": "Unter den Eichen",
        "building": "college",
        "building:levels": "2",
        "name": "B1-Gebäude",
        "roof:levels": "0"
      },
      "geometry": {
          "type": "MultiPolygon",
          "coordinates": [
            [
              [
                [8.215821, 50.0962726],
                [8.2157851, 50.0962373],
                [8.2157652, 50.0962456],
                [8.2157448, 50.0962255],
                [8.2157262, 50.0962333],
                [8.215689, 50.0961967],
                [8.215725, 50.0961816],
                [8.2156717, 50.096129],
                [8.2161347, 50.0959348],
                [8.2162821, 50.0960798],
                [8.215821, 50.0962726]
              ]
            ],
            [
              [
                [8.215821, 50.0962726],
                [8.2162821, 50.0960798],
                [8.2164003, 50.096197],
                [8.2159383, 50.0963894],
                [8.215821, 50.0962726]
              ]
            ],
            [
              [
                [8.2156717, 50.096129],
                [8.2155571, 50.0960167],
                [8.2157963, 50.0959163],
                [8.2158561, 50.0958913],
                [8.2160202, 50.0958224],
                [8.2161347, 50.0959348],
                [8.2156717, 50.096129]
              ]
            ]
          ]
      },
      "id": "way/182285618"
    }
  ]
}