{
  "type": "FeatureCollection",
  "features": [
    {
      "type": "Feature",
      "geometry": {
        "type": "Point",
        "coordinates": [8.216172281921175, 50.09766286913457]
      },
      "properties": {
        "name": "Gebäude D"
      }
    },
    {
      "type": "Feature",
      "geometry": {
        "type": "Point",
        "coordinates": [8.216185417191802, 50.09826942140179]
      },
      "properties": {
        "name": "Gebäude F"
      }
    },
    {
      "type": "Feature",
      "geometry": {
        "type": "Point",
        "coordinates": [8.216963212262012, 50.096921439612856]
      },
      "properties": {
        "name": "Gebäude C"
      }
    },
    {
      "type": "Feature",
      "geometry": {
        "type": "Point",
        "coordinates": [8.215985362420065, 50.09623857464032]
      },
      "properties": {
        "name": "Gebäude B1"
      }
    },
    {
      "type": "Feature",
      "geometry": {
        "type": "Point",
        "coordinates": [8.215941092133606, 50.09576522699076]
      },
      "properties": {
        "name": "Gebäude B2"
      }
    }
  ]
}
