{
  "type": "FeatureCollection",
  "generator": "overpass-turbo",
  "copyright": "The data included in this document is from www.openstreetmap.org. The data is made available under ODbL.",
  "timestamp": "2026-01-31T22:04:05Z",
  "features": [
    {
      "type": "Feature",
      "properties": {
        "@id": "way/111340981",
        "building": "university",
        "name": "E-Gebäude",
        "ref": "E"
      },
      "geometry": {
        "type": "Polygon",
        "coordinates": [
          [
            [
              8.2153399,
              50.0803677
            ],
            [
              8.2153935,
              50.0801922
            ],
            [
              8.2154674,
              50.0802015
            ],
            [
              8.21551,
              50.0800622
            ],
            [
              8.2154656,
              50.0800566
            ],
            [
              8.2154824,
              50.0800014
            ],
            [
              8.2156238,
              50.0800192
            ],
            [
              8.2156154,
              50.0800465
            ],
            [
              8.2157232,
              50.0800601
            ],
            [
              8.2157014,
              50.0801312
            ],
            [
              8.2157987,
              50.0801435
            ],
            [
              8.2157537,
              50.0802903
            ],
            [
              8.2156812,
              50.0802812
            ],
            [
              8.215653,
              50.0802576
            ],
            [
              8.2156578,
              50.0802219
            ],
            [
              8.2155595,
              50.0802095
            ],
            [
              8.2155494,
              50.0802424
            ],
            [
              8.2155048,
              50.0803884
            ],
            [
              8.2153399,
              50.0803677
            ]
          ]
        ]
      },
      "id": "way/111340981"
    },
    {
      "type": "Feature",
      "properties": {
        "@id": "way/111340985",
        "addr:city": "Wiesbaden",
        "addr:country": "DE",
        "addr:housename": "Gebäude F",
        "addr:housenumber": "18",
        "addr:postcode": "65197",
        "addr:street": "Kurt-Schumacher-Ring",
        "amenity": "kindergarten",
        "building": "yes",
        "check_date": "2023-12-21",
        "contact:email": "kita.hochschulerheinmain@evim.de",
        "contact:phone": "+49 611 47898",
        "contact:website": "https://www.evim.de/betreuungsangebote/evim-bildung/kita-an-der-hochschule-rhein-main/",
        "isced:level": "0",
        "max_age": "6",
        "min_age": "8 months",
        "name": "Kita an der Hochschule RheinMain",
        "operator": "Evangelischer Verein für Innere Mission in Nassau"
      },
      "geometry": {
        "type": "Polygon",
        "coordinates": [
          [
            [
              8.2153047,
              50.0806254
            ],
            [
              8.215269,
              50.0807842
            ],
            [
              8.2151906,
              50.0807769
            ],
            [
              8.2152263,
              50.0806182
            ],
            [
              8.2153047,
              50.0806254
            ]
          ]
        ]
      },
      "id": "way/111340985"
    },
    {
      "type": "Feature",
      "properties": {
        "@id": "way/111340989",
        "building": "university",
        "name": "B-Gebäude",
        "ref": "B"
      },
      "geometry": {
        "type": "Polygon",
        "coordinates": [
          [
            [
              8.2179317,
              50.0807818
            ],
            [
              8.2172653,
              50.0807035
            ],
            [
              8.2172549,
              50.0806901
            ],
            [
              8.2172442,
              50.0806762
            ],
            [
              8.2172655,
              50.0805364
            ],
            [
              8.2173022,
              50.08041
            ],
            [
              8.2175194,
              50.0804283
            ],
            [
              8.2174927,
              50.0805143
            ],
            [
              8.2173875,
              50.0805454
            ],
            [
              8.2173689,
              50.0806183
            ],
            [
              8.2178562,
              50.0806785
            ],
            [
              8.2179374,
              50.0807548
            ],
            [
              8.2179317,
              50.0807818
            ]
          ]
        ]
      },
      "id": "way/111340989"
    },
    {
      "type": "Feature",
      "properties": {
        "@id": "way/111340991",
        "building": "university",
        "name": "A-Gebäude",
        "ref": "A"
      },
      "geometry": {
        "type": "Polygon",
        "coordinates": [
          [
            [
              8.2167869,
              50.0813969
            ],
            [
              8.2168225,
              50.0812411
            ],
            [
              8.2168251,
              50.0812296
            ],
            [
              8.2168337,
              50.0811936
            ],
            [
              8.2166531,
              50.0810347
            ],
            [
              8.2166937,
              50.0810123
            ],
            [
              8.216708,
              50.0809931
            ],
            [
              8.2168721,
              50.0809223
            ],
            [
              8.2168789,
              50.0808906
            ],
            [
              8.2163878,
              50.080846
            ],
            [
              8.2163139,
              50.0807842
            ],
            [
              8.2164208,
              50.0807256
            ],
            [
              8.2165385,
              50.0806611
            ],
            [
              8.2166578,
              50.080679
            ],
            [
              8.2166768,
              50.0806976
            ],
            [
              8.2167449,
              50.0806668
            ],
            [
              8.2167814,
              50.0806503
            ],
            [
              8.2169103,
              50.0806596
            ],
            [
              8.2169438,
              50.0806643
            ],
            [
              8.2169731,
              50.0806948
            ],
            [
              8.2170184,
              50.080727
            ],
            [
              8.2170338,
              50.0807427
            ],
            [
              8.2170794,
              50.0807462
            ],
            [
              8.2171228,
              50.0807504
            ],
            [
              8.2171837,
              50.0807564
            ],
            [
              8.2172255,
              50.0807924
            ],
            [
              8.2172129,
              50.0808334
            ],
            [
              8.2172668,
              50.0808366
            ],
            [
              8.2172788,
              50.080838
            ],
            [
              8.217533,
              50.0808671
            ],
            [
              8.2176027,
              50.0809518
            ],
            [
              8.2175722,
              50.0810265
            ],
            [
              8.2173796,
              50.0810059
            ],
            [
              8.2172304,
              50.0810653
            ],
            [
              8.2170847,
              50.0810501
            ],
            [
              8.2170645,
              50.0811091
            ],
            [
              8.2171546,
              50.0811164
            ],
            [
              8.2171414,
              50.0812022
            ],
            [
              8.2170581,
              50.0811939
            ],
            [
              8.2170013,
              50.0813679
            ],
            [
              8.216883,
              50.0814138
            ],
            [
              8.2167869,
              50.0813969
            ]
          ]
        ]
      },
      "id": "way/111340991"
    },
    {
      "type": "Feature",
      "properties": {
        "@id": "way/392374626",
        "building": "university",
        "name": "G-Gebäude",
        "ref": "G"
      },
      "geometry": {
        "type": "Polygon",
        "coordinates": [
          [
            [
              8.2177105,
              50.0810419
            ],
            [
              8.2177439,
              50.0809237
            ],
            [
              8.2178994,
              50.0809418
            ],
            [
              8.217938,
              50.0809463
            ],
            [
              8.2180188,
              50.0809547
            ],
            [
              8.2182746,
              50.0809856
            ],
            [
              8.2182412,
              50.0811037
            ],
            [
              8.2177105,
              50.0810419
            ]
          ]
        ]
      },
      "id": "way/392374626"
    },
    {
      "type": "Feature",
      "properties": {
        "@id": "way/983605549",
        "addr:city": "Wiesbaden",
        "addr:housenumber": "18",
        "addr:postcode": "65197",
        "addr:street": "Kurt-Schumacher-Ring",
        "building": "university",
        "description": "Lehr- und Lernzentrum. Bibliothek, Seminar- und studentische Arbeitsräume",
        "name": "L-Gebäude",
        "ref": "L"
      },
      "geometry": {
        "type": "Polygon",
        "coordinates": [
          [
            [
              8.2173682,
              50.0796791
            ],
            [
              8.2166633,
              50.0795912
            ],
            [
              8.2161039,
              50.0795214
            ],
            [
              8.2161333,
              50.0794244
            ],
            [
              8.2161669,
              50.0793133
            ],
            [
              8.2174312,
              50.0794711
            ],
            [
              8.2173682,
              50.0796791
            ]
          ]
        ]
      },
      "id": "way/983605549"
    },
    {
      "type": "Feature",
      "properties": {
        "@id": "way/1434538113",
        "building": "university",
        "name": "C-Gebäude",
        "ref": "C"
      },
      "geometry": {
        "type": "Polygon",
        "coordinates": [
          [
            [
              8.2154059,
              50.0806432
            ],
            [
              8.2154216,
              50.0805876
            ],
            [
              8.2154688,
              50.080567
            ],
            [
              8.2154807,
              50.0805154
            ],
            [
              8.2155265,
              50.0805206
            ],
            [
              8.2156758,
              50.0805353
            ],
            [
              8.2156955,
              50.0804635
            ],
            [
              8.2157892,
              50.0804751
            ],
            [
              8.2162137,
              50.080532
            ],
            [
              8.2162428,
              50.080559
            ],
            [
              8.2162156,
              50.0806326
            ],
            [
              8.2160829,
              50.0806117
            ],
            [
              8.216076,
              50.0806375
            ],
            [
              8.2160729,
              50.0806505
            ],
            [
              8.2160697,
              50.0806636
            ],
            [
              8.2161296,
              50.0806699
            ],
            [
              8.2161204,
              50.0807057
            ],
            [
              8.2160998,
              50.080778
            ],
            [
              8.2159706,
              50.08083
            ],
            [
              8.2158725,
              50.0808179
            ],
            [
              8.2159175,
              50.0806978
            ],
            [
              8.2158044,
              50.0806887
            ],
            [
              8.215771,
              50.080686
            ],
            [
              8.2157411,
              50.0806836
            ],
            [
              8.2154059,
              50.0806432
            ]
          ]
        ]
      },
      "id": "way/1434538113"
    },
    {
      "type": "Feature",
      "properties": {
        "@id": "way/1434538115",
        "building": "university",
        "name": "D-Gebäude",
        "ref": "D"
      },
      "geometry": {
        "type": "Polygon",
        "coordinates": [
          [
            [
              8.2162943,
              50.080441
            ],
            [
              8.2163081,
              50.0803931
            ],
            [
              8.2163121,
              50.0803796
            ],
            [
              8.216335,
              50.0803004
            ],
            [
              8.2163506,
              50.0802927
            ],
            [
              8.2163433,
              50.0802842
            ],
            [
              8.2163122,
              50.0802977
            ],
            [
              8.2160934,
              50.0802716
            ],
            [
              8.216127,
              50.0801555
            ],
            [
              8.2158981,
              50.0801282
            ],
            [
              8.2159101,
              50.0800869
            ],
            [
              8.2159143,
              50.0800722
            ],
            [
              8.2159319,
              50.0800743
            ],
            [
              8.2159348,
              50.0800641
            ],
            [
              8.215937,
              50.0800565
            ],
            [
              8.2157986,
              50.08004
            ],
            [
              8.2158494,
              50.0798645
            ],
            [
              8.2159523,
              50.0798767
            ],
            [
              8.2159654,
              50.0798314
            ],
            [
              8.2160576,
              50.0798424
            ],
            [
              8.2160729,
              50.0797896
            ],
            [
              8.216144,
              50.0797981
            ],
            [
              8.2161594,
              50.0797447
            ],
            [
              8.2163902,
              50.0797722
            ],
            [
              8.2162954,
              50.0800992
            ],
            [
              8.2162581,
              50.0800948
            ],
            [
              8.2162557,
              50.080103
            ],
            [
              8.2162527,
              50.0801131
            ],
            [
              8.2165908,
              50.0801535
            ],
            [
              8.2166002,
              50.080121
            ],
            [
              8.216646,
              50.0799628
            ],
            [
              8.2169887,
              50.0800037
            ],
            [
              8.2170519,
              50.0797858
            ],
            [
              8.2173024,
              50.0798157
            ],
            [
              8.2172393,
              50.0800336
            ],
            [
              8.2171665,
              50.0800249
            ],
            [
              8.2171113,
              50.0802156
            ],
            [
              8.217088,
              50.0802959
            ],
            [
              8.2171776,
              50.0803066
            ],
            [
              8.2171354,
              50.0804522
            ],
            [
              8.217005,
              50.0804367
            ],
            [
              8.2170243,
              50.0803701
            ],
            [
              8.2167254,
              50.0803344
            ],
            [
              8.2167119,
              50.080381
            ],
            [
              8.2166966,
              50.0804338
            ],
            [
              8.2166012,
              50.0804224
            ],
            [
              8.2165208,
              50.0804128
            ],
            [
              8.2165054,
              50.0804661
            ],
            [
              8.2162943,
              50.080441
            ]
          ]
        ]
      },
      "id": "way/1434538115"
    }
  ]
}